start=new Date('2023-03-18T00:00:00.000Z').valueOf();
sats=[{"ARG_OF_PERICENTER":"58.7801","RA_OF_ASC_NODE":"127.7387","PERIAPSIS":"539.453","ELEMENT_SET_NO":"999","SEMIMAJOR_AXIS":"6917.942","EPOCH":"2023-03-17T20:27:51.076800","EPHEMERIS_TYPE":"0","DECAY_DATE":null,"COUNTRY_CODE":"US","OBJECT_NAME":"STARLINK-4788","TLE_LINE1":"1 53863U 22114AX  23076.85267450  .00012367  00000-0  79415-3 0  9998","SITE":"AFETR","REV_AT_EPOCH":"2888","OBJECT_ID":"2022-114AX","APOAPSIS":"540.161","MEAN_ANOMALY":"301.3241","RCS_SIZE":"LARGE","INCLINATION":"53.2147","TLE_LINE2":"2 53863  53.2147 127.7387 0000512  58.7801 301.3241 15.08819853 28889","NORAD_CAT_ID":"53863","MEAN_ELEMENT_THEORY":"SGP4","MEAN_MOTION_DDOT":"0.0000000000000","REF_FRAME":"TEME","MEAN_MOTION_DOT":"0.00012367","GP_ID":"228359437","LAUNCH_DATE":"2022-09-19","CLASSIFICATION_TYPE":"U","TIME_SYSTEM":"UTC","MEAN_MOTION":"15.08819853","CENTER_NAME":"EARTH","ECCENTRICITY":"0.00005120","PERIOD":"95.439","BSTAR":"0.00079415000000","FILE":"3863544","OBJECT_TYPE":"PAYLOAD"},{"ARG_OF_PERICENTER":"73.5519","RA_OF_ASC_NODE":"127.1113","PERIAPSIS":"538.822","SEMIMAJOR_AXIS":"6917.879","ELEMENT_SET_NO":"999","EPOCH":"2023-03-17T20:47:34.500192","OBJECT_NAME":"STARLINK-4779","DECAY_DATE":null,"COUNTRY_CODE":"US","EPHEMERIS_TYPE":"0","SITE":"AFETR","TLE_LINE1":"1 53864U 22114AY  23076.86637153  .00023869  00000-0  15127-2 0  9999","REV_AT_EPOCH":"2889","OBJECT_ID":"2022-114AY","MEAN_ANOMALY":"286.5619","APOAPSIS":"540.666","RCS_SIZE":"LARGE","TLE_LINE2":"2 53864  53.2172 127.1113 0001333  73.5519 286.5619 15.08840406 28894","NORAD_CAT_ID":"53864","INCLINATION":"53.2172","REF_FRAME":"TEME","MEAN_MOTION_DOT":"0.00023869","MEAN_ELEMENT_THEORY":"SGP4","MEAN_MOTION_DDOT":"0.0000000000000","MEAN_MOTION":"15.08840406","CLASSIFICATION_TYPE":"U","TIME_SYSTEM":"UTC","LAUNCH_DATE":"2022-09-19","GP_ID":"228357686","BSTAR":"0.00151270000000","CENTER_NAME":"EARTH","PERIOD":"95.438","ECCENTRICITY":"0.00013330","FILE":"3863544","OBJECT_TYPE":"PAYLOAD"},{"DECAY_DATE":null,"COUNTRY_CODE":"US","EPHEMERIS_TYPE":"0","OBJECT_NAME":"STARLINK-4785","REV_AT_EPOCH":"2882","OBJECT_ID":"2022-114AZ","TLE_LINE1":"1 53865U 22114AZ  23076.42479678  .00015952  00000-0  10187-2 0  9993","SITE":"AFETR","PERIAPSIS":"538.618","ARG_OF_PERICENTER":"81.5766","RA_OF_ASC_NODE":"129.3276","EPOCH":"2023-03-17T10:11:42.441792","ELEMENT_SET_NO":"999","SEMIMAJOR_AXIS":"6917.950","CENTER_NAME":"EARTH","PERIOD":"95.439","ECCENTRICITY":"0.00017300","BSTAR":"0.00101870000000","LAUNCH_DATE":"2022-09-19","GP_ID":"228327388","CLASSIFICATION_TYPE":"U","MEAN_MOTION":"15.08817243","TIME_SYSTEM":"UTC","OBJECT_TYPE":"PAYLOAD","FILE":"3863278","RCS_SIZE":"LARGE","APOAPSIS":"541.012","MEAN_ANOMALY":"278.5422","MEAN_MOTION_DDOT":"0.0000000000000","MEAN_ELEMENT_THEORY":"SGP4","REF_FRAME":"TEME","MEAN_MOTION_DOT":"0.00015952","INCLINATION":"53.2172","TLE_LINE2":"2 53865  53.2172 129.3276 0001730  81.5766 278.5422 15.08817243 28822","NORAD_CAT_ID":"53865"},{"ARG_OF_PERICENTER":"91.1207","RA_OF_ASC_NODE":"108.0905","PERIAPSIS":"538.761","SEMIMAJOR_AXIS":"6917.895","ELEMENT_SET_NO":"999","EPOCH":"2023-03-17T18:59:02.476032","OBJECT_NAME":"STARLINK-4762","DECAY_DATE":null,"COUNTRY_CODE":"US","EPHEMERIS_TYPE":"0","SITE":"AFETR","TLE_LINE1":"1 53866U 22114BA  23076.79100088 -.00000501  00000-0 -13392-4 0  9999","REV_AT_EPOCH":"2915","OBJECT_ID":"2022-114BA","MEAN_ANOMALY":"268.9951","APOAPSIS":"540.758","RCS_SIZE":"LARGE","NORAD_CAT_ID":"53866","TLE_LINE2":"2 53866  53.2181 108.0905 0001443  91.1207 268.9951 15.08835344 29153","INCLINATION":"53.2181","REF_FRAME":"TEME","MEAN_MOTION_DOT":"-0.00000501","MEAN_MOTION_DDOT":"0.0000000000000","MEAN_ELEMENT_THEORY":"SGP4","CLASSIFICATION_TYPE":"U","TIME_SYSTEM":"UTC","MEAN_MOTION":"15.08835344","LAUNCH_DATE":"2022-09-19","GP_ID":"228358688","BSTAR":"-0.00001339200000","CENTER_NAME":"EARTH","ECCENTRICITY":"0.00014430","PERIOD":"95.438","FILE":"3863544","OBJECT_TYPE":"PAYLOAD"},{"OBJECT_NAME":"STARLINK-4793","DECAY_DATE":null,"COUNTRY_CODE":"US","EPHEMERIS_TYPE":"0","SITE":"AFETR","TLE_LINE1":"1 53867U 22114BB  23076.84525976 -.00003103  00000-0 -17689-3 0  9996","OBJECT_ID":"2022-114BB","REV_AT_EPOCH":"2902","RA_OF_ASC_NODE":"117.7000","ARG_OF_PERICENTER":"93.1368","PERIAPSIS":"538.829","SEMIMAJOR_AXIS":"6917.858","ELEMENT_SET_NO":"999","EPOCH":"2023-03-17T20:17:10.443264","CLASSIFICATION_TYPE":"U","TIME_SYSTEM":"UTC","MEAN_MOTION":"15.08847403","GP_ID":"228358938","LAUNCH_DATE":"2022-09-19","BSTAR":"-0.00017689000000","PERIOD":"95.437","ECCENTRICITY":"0.00012920","CENTER_NAME":"EARTH","FILE":"3863544","OBJECT_TYPE":"PAYLOAD","MEAN_ANOMALY":"266.9772","APOAPSIS":"540.617","RCS_SIZE":"LARGE","NORAD_CAT_ID":"53867","TLE_LINE2":"2 53867  53.2195 117.7000 0001292  93.1368 266.9772 15.08847403 29028","INCLINATION":"53.2195","MEAN_MOTION_DOT":"-0.00003103","REF_FRAME":"TEME","MEAN_MOTION_DDOT":"0.0000000000000","MEAN_ELEMENT_THEORY":"SGP4"},{"OBJECT_TYPE":"PAYLOAD","FILE":"3863544","ECCENTRICITY":"0.00014800","PERIOD":"95.437","CENTER_NAME":"EARTH","BSTAR":"-0.00015181000000","GP_ID":"228358186","LAUNCH_DATE":"2022-09-19","CLASSIFICATION_TYPE":"U","MEAN_MOTION":"15.08845795","TIME_SYSTEM":"UTC","MEAN_ELEMENT_THEORY":"SGP4","MEAN_MOTION_DDOT":"0.0000000000000","MEAN_MOTION_DOT":"-0.00002704","REF_FRAME":"TEME","INCLINATION":"53.2184","NORAD_CAT_ID":"53868","TLE_LINE2":"2 53868  53.2184 107.5620 0001480  97.4202 262.6958 15.08845795 29161","RCS_SIZE":"LARGE","APOAPSIS":"540.752","MEAN_ANOMALY":"262.6958","OBJECT_ID":"2022-114BC","REV_AT_EPOCH":"2916","TLE_LINE1":"1 53868U 22114BC  23076.81766261 -.00002704  00000-0 -15181-3 0  9999","SITE":"AFETR","DECAY_DATE":null,"COUNTRY_CODE":"US","EPHEMERIS_TYPE":"0","OBJECT_NAME":"STARLINK-4789","EPOCH":"2023-03-17T19:37:26.049504","ELEMENT_SET_NO":"999","SEMIMAJOR_AXIS":"6917.863","PERIAPSIS":"538.704","RA_OF_ASC_NODE":"107.5620","ARG_OF_PERICENTER":"97.4202"},{"APOAPSIS":"540.540","MEAN_ANOMALY":"237.0127","RCS_SIZE":"LARGE","INCLINATION":"53.2181","TLE_LINE2":"2 53869  53.2181 117.4763 0001242 123.0985 237.0127 15.08861099 29021","NORAD_CAT_ID":"53869","MEAN_ELEMENT_THEORY":"SGP4","MEAN_MOTION_DDOT":"0.0000000000000","MEAN_MOTION_DOT":"-0.00004654","REF_FRAME":"TEME","LAUNCH_DATE":"2022-09-19","GP_ID":"228357937","CLASSIFICATION_TYPE":"U","TIME_SYSTEM":"UTC","MEAN_MOTION":"15.08861099","PERIOD":"95.436","ECCENTRICITY":"0.00012420","CENTER_NAME":"EARTH","BSTAR":"-0.00027435000000","FILE":"3863544","OBJECT_TYPE":"PAYLOAD","RA_OF_ASC_NODE":"117.4763","ARG_OF_PERICENTER":"123.0985","PERIAPSIS":"538.822","ELEMENT_SET_NO":"999","SEMIMAJOR_AXIS":"6917.816","EPOCH":"2023-03-17T19:24:06.603264","COUNTRY_CODE":"US","DECAY_DATE":null,"EPHEMERIS_TYPE":"0","OBJECT_NAME":"STARLINK-4810","TLE_LINE1":"1 53869U 22114BD  23076.80840976 -.00004654  00000-0 -27435-3 0  9996","SITE":"AFETR","OBJECT_ID":"2022-114BD","REV_AT_EPOCH":"2902"},{"PERIAPSIS":"538.815","ARG_OF_PERICENTER":"97.8712","RA_OF_ASC_NODE":"109.1197","EPOCH":"2023-03-17T12:00:21.556800","ELEMENT_SET_NO":"999","SEMIMAJOR_AXIS":"6917.916","EPHEMERIS_TYPE":"0","DECAY_DATE":null,"COUNTRY_CODE":"US","OBJECT_NAME":"STARLINK-4732","REV_AT_EPOCH":"2911","OBJECT_ID":"2022-114BE","TLE_LINE1":"1 53870U 22114BE  23076.50024950  .00015770  00000-0  10070-2 0  9996","SITE":"AFETR","RCS_SIZE":"LARGE","APOAPSIS":"540.748","MEAN_ANOMALY":"262.2438","MEAN_ELEMENT_THEORY":"SGP4","MEAN_MOTION_DDOT":"0.0000000000000","REF_FRAME":"TEME","MEAN_MOTION_DOT":"0.00015770","INCLINATION":"53.2175","TLE_LINE2":"2 53870  53.2175 109.1197 0001397  97.8712 262.2438 15.08828313 29119","NORAD_CAT_ID":"53870","CENTER_NAME":"EARTH","PERIOD":"95.438","ECCENTRICITY":"0.00013970","BSTAR":"0.00100700000000","LAUNCH_DATE":"2022-09-19","GP_ID":"228326637","CLASSIFICATION_TYPE":"U","MEAN_MOTION":"15.08828313","TIME_SYSTEM":"UTC","OBJECT_TYPE":"PAYLOAD","FILE":"3863278"},{"CENTER_NAME":"EARTH","ECCENTRICITY":"0.00015040","PERIOD":"95.437","BSTAR":"-0.00000813110000","LAUNCH_DATE":"2022-09-19","GP_ID":"228359438","MEAN_MOTION":"15.08843101","CLASSIFICATION_TYPE":"U","TIME_SYSTEM":"UTC","OBJECT_TYPE":"PAYLOAD","FILE":"3863544","RCS_SIZE":"LARGE","APOAPSIS":"540.776","MEAN_ANOMALY":"274.6350","MEAN_ELEMENT_THEORY":"SGP4","MEAN_MOTION_DDOT":"0.0000000000000","REF_FRAME":"TEME","MEAN_MOTION_DOT":"-0.00000417","INCLINATION":"53.2178","TLE_LINE2":"2 53871  53.2178 107.5265 0001504  85.4814 274.6350 15.08843101 29164","NORAD_CAT_ID":"53871","COUNTRY_CODE":"US","DECAY_DATE":null,"EPHEMERIS_TYPE":"0","OBJECT_NAME":"STARLINK-4740","REV_AT_EPOCH":"2916","OBJECT_ID":"2022-114BF","TLE_LINE1":"1 53871U 22114BF  23076.81397530 -.00000417  00000-0 -81311-5 0  9991","SITE":"AFETR","PERIAPSIS":"538.695","ARG_OF_PERICENTER":"85.4814","RA_OF_ASC_NODE":"107.5265","EPOCH":"2023-03-17T19:32:07.465920","ELEMENT_SET_NO":"999","SEMIMAJOR_AXIS":"6917.871"},{"RCS_SIZE":"LARGE","MEAN_ANOMALY":"272.3307","APOAPSIS":"540.555","MEAN_MOTION_DOT":"-0.00002669","REF_FRAME":"TEME","MEAN_ELEMENT_THEORY":"SGP4","MEAN_MOTION_DDOT":"0.0000000000000","TLE_LINE2":"2 53886  53.2166 169.3639 0001102  87.7811 272.3307 15.08824484 26981","NORAD_CAT_ID":"53886","INCLINATION":"53.2166","BSTAR":"-0.00014972000000","PERIOD":"95.439","ECCENTRICITY":"0.00011020","CENTER_NAME":"EARTH","MEAN_MOTION":"15.08824484","CLASSIFICATION_TYPE":"U","TIME_SYSTEM":"UTC","LAUNCH_DATE":"2022-09-24","GP_ID":"228328593","OBJECT_TYPE":"PAYLOAD","FILE":"3863324","PERIAPSIS":"539.030","RA_OF_ASC_NODE":"169.3639","ARG_OF_PERICENTER":"87.7811","EPOCH":"2023-03-17T12:18:58.836672","SEMIMAJOR_AXIS":"6917.928","ELEMENT_SET_NO":"999","OBJECT_NAME":"STARLINK-5028","COUNTRY_CODE":"US","DECAY_DATE":null,"EPHEMERIS_TYPE":"0","OBJECT_ID":"2022-119A","REV_AT_EPOCH":"2698","SITE":"AFETR","TLE_LINE1":"1 53886U 22119A   23076.51318098 -.00002669  00000-0 -14972-3 0  9999"}];
